CCSDS_OMM_VERS = 2.0
CREATION_DATE  = 
ORIGINATOR     = 

OBJECT_NAME    = ATLAS CENTAUR 2
OBJECT_ID      = 1963-047A
CENTER_NAME    = EARTH
REF_FRAME      = TEME
TIME_SYSTEM    = UTC
MEAN_ELEMENT_THEORY = SGP/SGP4

EPOCH          = 2026-03-22T11:35:37.978080
MEAN_MOTION    = 14.12113741
ECCENTRICITY   = .05474205
INCLINATION    = 30.3540
RA_OF_ASC_NODE = 124.1421
ARG_OF_PERICENTER = 193.0407
MEAN_ANOMALY   = 165.5509

EPHEMERIS_TYPE = 0
CLASSIFICATION_TYPE = U
NORAD_CAT_ID   = 694
ELEMENT_SET_NO = 999
REV_AT_EPOCH   = 13343
BSTAR          = .23693249E-3
MEAN_MOTION_DOT = .2049E-4
MEAN_MOTION_DDOT = 0

CCSDS_OMM_VERS = 2.0
CREATION_DATE  = 
ORIGINATOR     = 

OBJECT_NAME    = THOR AGENA D R/B
OBJECT_ID      = 1964-002A
CENTER_NAME    = EARTH
REF_FRAME      = TEME
TIME_SYSTEM    = UTC
MEAN_ELEMENT_THEORY = SGP/SGP4

EPOCH          = 2026-03-23T06:25:12.235008
MEAN_MOTION    = 14.34027088
ECCENTRICITY   = .00323112
INCLINATION    = 99.1219
RA_OF_ASC_NODE = 96.3449
ARG_OF_PERICENTER = 217.5737
MEAN_ANOMALY   = 142.3188

EPHEMERIS_TYPE = 0
CLASSIFICATION_TYPE = U
NORAD_CAT_ID   = 733
ELEMENT_SET_NO = 999
REV_AT_EPOCH   = 24024
BSTAR          = .76708538E-4
MEAN_MOTION_DOT = .166E-5
MEAN_MOTION_DDOT = 0

CCSDS_OMM_VERS = 2.0
CREATION_DATE  = 
ORIGINATOR     = 

OBJECT_NAME    = SL-3 R/B
OBJECT_ID      = 1964-053B
CENTER_NAME    = EARTH
REF_FRAME      = TEME
TIME_SYSTEM    = UTC
MEAN_ELEMENT_THEORY = SGP/SGP4

EPOCH          = 2026-03-22T19:56:56.893056
MEAN_MOTION    = 14.61376926
ECCENTRICITY   = .00802137
INCLINATION    = 65.0762
RA_OF_ASC_NODE = 292.7088
ARG_OF_PERICENTER = 288.0799
MEAN_ANOMALY   = 71.1575

EPHEMERIS_TYPE = 0
CLASSIFICATION_TYPE = U
NORAD_CAT_ID   = 877
ELEMENT_SET_NO = 999
REV_AT_EPOCH   = 26871
BSTAR          = .54396168E-4
MEAN_MOTION_DOT = .156E-5
MEAN_MOTION_DDOT = 0

CCSDS_OMM_VERS = 2.0
CREATION_DATE  = 
ORIGINATOR     = 

OBJECT_NAME    = SL-8 R/B
OBJECT_ID      = 1967-045B
CENTER_NAME    = EARTH
REF_FRAME      = TEME
TIME_SYSTEM    = UTC
MEAN_ELEMENT_THEORY = SGP/SGP4

EPOCH          = 2026-03-23T03:19:32.553408
MEAN_MOTION    = 14.45633566
ECCENTRICITY   = .00647055
INCLINATION    = 74.0122
RA_OF_ASC_NODE = 322.9747
ARG_OF_PERICENTER = 326.2250
MEAN_ANOMALY   = 33.4792

EPHEMERIS_TYPE = 0
CLASSIFICATION_TYPE = U
NORAD_CAT_ID   = 2802
ELEMENT_SET_NO = 999
REV_AT_EPOCH   = 9096
BSTAR          = .10151462E-3
MEAN_MOTION_DOT = .339E-5
MEAN_MOTION_DDOT = 0

CCSDS_OMM_VERS = 2.0
CREATION_DATE  = 
ORIGINATOR     = 

OBJECT_NAME    = SL-8 R/B
OBJECT_ID      = 1968-040B
CENTER_NAME    = EARTH
REF_FRAME      = TEME
TIME_SYSTEM    = UTC
MEAN_ELEMENT_THEORY = SGP/SGP4

EPOCH          = 2026-03-23T00:27:59.116608
MEAN_MOTION    = 15.03340879
ECCENTRICITY   = .00234655
INCLINATION    = 74.0291
RA_OF_ASC_NODE = 286.4542
ARG_OF_PERICENTER = 105.0834
MEAN_ANOMALY   = 255.2953

EPHEMERIS_TYPE = 0
CLASSIFICATION_TYPE = U
NORAD_CAT_ID   = 3230
ELEMENT_SET_NO = 999
REV_AT_EPOCH   = 9201
BSTAR          = .27330401E-3
MEAN_MOTION_DOT = .3692E-4
MEAN_MOTION_DDOT = 0

CCSDS_OMM_VERS = 2.0
CREATION_DATE  = 
ORIGINATOR     = 

OBJECT_NAME    = OAO 2
OBJECT_ID      = 1968-110A
CENTER_NAME    = EARTH
REF_FRAME      = TEME
TIME_SYSTEM    = UTC
MEAN_ELEMENT_THEORY = SGP/SGP4

EPOCH          = 2026-03-23T00:41:14.995392
MEAN_MOTION    = 14.47315207
ECCENTRICITY   = .00061398
INCLINATION    = 34.9925
RA_OF_ASC_NODE = 190.7462
ARG_OF_PERICENTER = 301.9590
MEAN_ANOMALY   = 58.0503

EPHEMERIS_TYPE = 0
CLASSIFICATION_TYPE = U
NORAD_CAT_ID   = 3597
ELEMENT_SET_NO = 999
REV_AT_EPOCH   = 2103
BSTAR          = .77507781E-4
MEAN_MOTION_DOT = .269E-5
MEAN_MOTION_DDOT = 0

CCSDS_OMM_VERS = 2.0
CREATION_DATE  = 
ORIGINATOR     = 

OBJECT_NAME    = ISIS 1
OBJECT_ID      = 1969-009A
CENTER_NAME    = EARTH
REF_FRAME      = TEME
TIME_SYSTEM    = UTC
MEAN_ELEMENT_THEORY = SGP/SGP4

EPOCH          = 2026-03-23T04:07:54.818400
MEAN_MOTION    = 11.30417729
ECCENTRICITY   = .17078809
INCLINATION    = 88.4519
RA_OF_ASC_NODE = 153.8377
ARG_OF_PERICENTER = 61.9650
MEAN_ANOMALY   = 314.3528

EPHEMERIS_TYPE = 0
CLASSIFICATION_TYPE = U
NORAD_CAT_ID   = 3669
ELEMENT_SET_NO = 999
REV_AT_EPOCH   = 35005
BSTAR          = .79399399E-4
MEAN_MOTION_DOT = .133E-5
MEAN_MOTION_DDOT = 0

CCSDS_OMM_VERS = 2.0
CREATION_DATE  = 
ORIGINATOR     = 

OBJECT_NAME    = SERT 2
OBJECT_ID      = 1970-009A
CENTER_NAME    = EARTH
REF_FRAME      = TEME
TIME_SYSTEM    = UTC
MEAN_ELEMENT_THEORY = SGP/SGP4

EPOCH          = 2026-03-22T21:08:34.620864
MEAN_MOTION    = 13.58731021
ECCENTRICITY   = .00054848
INCLINATION    = 99.2777
RA_OF_ASC_NODE = 24.2539
ARG_OF_PERICENTER = 124.8141
MEAN_ANOMALY   = 303.6392

EPHEMERIS_TYPE = 0
CLASSIFICATION_TYPE = U
NORAD_CAT_ID   = 4327
ELEMENT_SET_NO = 999
REV_AT_EPOCH   = 78168
BSTAR          = .7786883E-4
MEAN_MOTION_DOT = .16E-6
MEAN_MOTION_DDOT = 0

CCSDS_OMM_VERS = 2.0
CREATION_DATE  = 
ORIGINATOR     = 

OBJECT_NAME    = SL-3 R/B
OBJECT_ID      = 1971-028B
CENTER_NAME    = EARTH
REF_FRAME      = TEME
TIME_SYSTEM    = UTC
MEAN_ELEMENT_THEORY = SGP/SGP4

EPOCH          = 2026-03-23T04:12:59.876928
MEAN_MOTION    = 15.62305083
ECCENTRICITY   = .00138736
INCLINATION    = 81.2376
RA_OF_ASC_NODE = 35.3595
ARG_OF_PERICENTER = 227.7896
MEAN_ANOMALY   = 132.2181

EPHEMERIS_TYPE = 0
CLASSIFICATION_TYPE = U
NORAD_CAT_ID   = 5118
ELEMENT_SET_NO = 999
REV_AT_EPOCH   = 99077
BSTAR          = .53405261E-3
MEAN_MOTION_DOT = .47558E-3
MEAN_MOTION_DDOT = 0

CCSDS_OMM_VERS = 2.0
CREATION_DATE  = 
ORIGINATOR     = 

OBJECT_NAME    = ASTEX 1
OBJECT_ID      = 1971-089A
CENTER_NAME    = EARTH
REF_FRAME      = TEME
TIME_SYSTEM    = UTC
MEAN_ELEMENT_THEORY = SGP/SGP4

EPOCH          = 2026-03-23T04:52:26.702976
MEAN_MOTION    = 14.50783455
ECCENTRICITY   = .00170581
INCLINATION    = 92.7102
RA_OF_ASC_NODE = 156.1280
ARG_OF_PERICENTER = 45.5662
MEAN_ANOMALY   = 314.6936

EPHEMERIS_TYPE = 0
CLASSIFICATION_TYPE = U
NORAD_CAT_ID   = 5560
ELEMENT_SET_NO = 999
REV_AT_EPOCH   = 86426
BSTAR          = .11602173E-3
MEAN_MOTION_DOT = .456E-5
MEAN_MOTION_DDOT = 0

CCSDS_OMM_VERS = 2.0
CREATION_DATE  = 
ORIGINATOR     = 

OBJECT_NAME    = SL-8 R/B
OBJECT_ID      = 1971-119B
CENTER_NAME    = EARTH
REF_FRAME      = TEME
TIME_SYSTEM    = UTC
MEAN_ELEMENT_THEORY = SGP/SGP4

EPOCH          = 2026-03-23T05:21:59.897088
MEAN_MOTION    = 14.38140309
ECCENTRICITY   = .05470001
INCLINATION    = 73.8860
RA_OF_ASC_NODE = 150.4177
ARG_OF_PERICENTER = 114.1932
MEAN_ANOMALY   = 251.7393

EPHEMERIS_TYPE = 0
CLASSIFICATION_TYPE = U
NORAD_CAT_ID   = 5730
ELEMENT_SET_NO = 999
REV_AT_EPOCH   = 65743
BSTAR          = .5256571E-3
MEAN_MOTION_DOT = .1006E-3
MEAN_MOTION_DDOT = 0

CCSDS_OMM_VERS = 2.0
CREATION_DATE  = 
ORIGINATOR     = 

OBJECT_NAME    = OAO 3 (COPERNICUS)
OBJECT_ID      = 1972-065A
CENTER_NAME    = EARTH
REF_FRAME      = TEME
TIME_SYSTEM    = UTC
MEAN_ELEMENT_THEORY = SGP/SGP4

EPOCH          = 2026-03-23T02:11:47.656320
MEAN_MOTION    = 14.60008533
ECCENTRICITY   = .00073301
INCLINATION    = 35.0049
RA_OF_ASC_NODE = 220.9582
ARG_OF_PERICENTER = 271.0140
MEAN_ANOMALY   = 255.9727

EPHEMERIS_TYPE = 0
CLASSIFICATION_TYPE = U
NORAD_CAT_ID   = 6153
ELEMENT_SET_NO = 999
REV_AT_EPOCH   = 84815
BSTAR          = .82392955E-4
MEAN_MOTION_DOT = .381E-5
MEAN_MOTION_DDOT = 0

